{
  "type": "FeatureCollection",
  "features": [
    {
      "type": "Feature",
      "properties": {
        "norad_id": 66582,
        "name": "STARLINK-35746",
        "group": "last-30-days",
        "lat": 29.25767057117351,
        "lon": 104.59497656087879,
        "alt_km": 394.08250657236295,
        "timestamp": "2025-12-21T20:41:06.755496+00:00",
        "meta_object_name": "STARLINK-35746",
        "meta_object_id": "2025-268AB",
        "meta_epoch": "2025-12-21T14:00:01.999872",
        "meta_mean_motion": 15.56394889,
        "meta_eccentricity": 0.00014427,
        "meta_inclination": 43.0009,
        "meta_ra_of_asc_node": 69.286,
        "meta_arg_of_pericenter": 273.8496,
        "meta_mean_anomaly": 9.5205,
        "meta_ephemeris_type": 0,
        "meta_classification_type": "U",
        "meta_norad_cat_id": 66582,
        "meta_element_set_no": 999,
        "meta_rev_at_epoch": 608,
        "meta_bstar": -7.3572042e-05,
        "meta_mean_motion_dot": -5.698e-05,
        "meta_mean_motion_ddot": 0,
        "tle_line1": "1 66582U 25268AB  25355.58335648 -.00005698  00000+0 -73572-4 0  9999",
        "tle_line2": "2 66582  43.0009  69.2860 0001442 273.8496   9.5205 15.56394889  6089"
      },
      "geometry": {
        "type": "Point",
        "coordinates": [
          104.59497656087879,
          29.25767057117351
        ]
      }
    },
    {
      "type": "Feature",
      "properties": {
        "norad_id": 66583,
        "name": "STARLINK-35941",
        "group": "last-30-days",
        "lat": 30.287574886591326,
        "lon": 106.44910144100983,
        "alt_km": 393.89403805582515,
        "timestamp": "2025-12-21T20:41:06.755505+00:00",
        "meta_object_name": "STARLINK-35941",
        "meta_object_id": "2025-268AC",
        "meta_epoch": "2025-12-21T14:00:01.999872",
        "meta_mean_motion": 15.56379057,
        "meta_eccentricity": 0.00014648,
        "meta_inclination": 43.0009,
        "meta_ra_of_asc_node": 69.2814,
        "meta_arg_of_pericenter": 277.7851,
        "meta_mean_anomaly": 7.5037,
        "meta_ephemeris_type": 0,
        "meta_classification_type": "U",
        "meta_norad_cat_id": 66583,
        "meta_element_set_no": 999,
        "meta_rev_at_epoch": 608,
        "meta_bstar": 0.00035292516,
        "meta_mean_motion_dot": 0.00025285,
        "meta_mean_motion_ddot": 0,
        "tle_line1": "1 66583U 25268AC  25355.58335648  .00025285  00000+0  35293-3 0  9999",
        "tle_line2": "2 66583  43.0009  69.2814 0001464 277.7851   7.5037 15.56379057  6082"
      },
      "geometry": {
        "type": "Point",
        "coordinates": [
          106.44910144100983,
          30.287574886591326
        ]
      }
    },
    {
      "type": "Feature",
      "properties": {
        "norad_id": 66584,
        "name": "STARLINK-35939",
        "group": "last-30-days",
        "lat": 31.34675295017069,
        "lon": 108.4448582454649,
        "alt_km": 394.2040645398047,
        "timestamp": "2025-12-21T20:41:06.755515+00:00",
        "meta_object_name": "STARLINK-35939",
        "meta_object_id": "2025-268AD",
        "meta_epoch": "2025-12-21T14:18:44.121600",
        "meta_mean_motion": 15.56458965,
        "meta_eccentricity": 0.00027995,
        "meta_inclination": 43.0031,
        "meta_ra_of_asc_node": 69.198,
        "meta_arg_of_pericenter": 266.5249,
        "meta_mean_anomaly": 93.5294,
        "meta_ephemeris_type": 0,
        "meta_classification_type": "U",
        "meta_norad_cat_id": 66584,
        "meta_element_set_no": 999,
        "meta_rev_at_epoch": 600,
        "meta_bstar": 0.0017505243,
        "meta_mean_motion_dot": 0.00128939,
        "meta_mean_motion_ddot": 0,
        "tle_line1": "1 66584U 25268AD  25355.59634400  .00128939  00000+0  17505-2 0  9994",
        "tle_line2": "2 66584  43.0031  69.1980 0002799 266.5249  93.5294 15.56458965  6008"
      },
      "geometry": {
        "type": "Point",
        "coordinates": [
          108.4448582454649,
          31.34675295017069
        ]
      }
    },
    {
      "type": "Feature",
      "properties": {
        "norad_id": 66585,
        "name": "STARLINK-35963",
        "group": "last-30-days",
        "lat": 31.27544506117788,
        "lon": 108.31262445472252,
        "alt_km": 400.0858616881969,
        "timestamp": "2025-12-21T20:41:06.755524+00:00",
        "meta_object_name": "STARLINK-35963",
        "meta_object_id": "2025-268AE",
        "meta_epoch": "2025-12-21T14:00:01.999872",
        "meta_mean_motion": 15.55502036,
        "meta_eccentricity": 9.63e-05,
        "meta_inclination": 43.0008,
        "meta_ra_of_asc_node": 69.2729,
        "meta_arg_of_pericenter": 267.6315,
        "meta_mean_anomaly": 21.0806,
        "meta_ephemeris_type": 0,
        "meta_classification_type": "U",
        "meta_norad_cat_id": 66585,
        "meta_element_set_no": 999,
        "meta_rev_at_epoch": 608,
        "meta_bstar": -0.033514499,
        "meta_mean_motion_dot": -0.02091691,
        "meta_mean_motion_ddot": 0,
        "tle_line1": "1 66585U 25268AE  25355.58335648 -.02091691  00000+0 -33514-1 0  9991",
        "tle_line2": "2 66585  43.0008  69.2729 0000963 267.6315  21.0806 15.55502036  6083"
      },
      "geometry": {
        "type": "Point",
        "coordinates": [
          108.31262445472252,
          31.27544506117788
        ]
      }
    },
    {
      "type": "Feature",
      "properties": {
        "norad_id": 66586,
        "name": "TJS-21",
        "group": "last-30-days",
        "lat": 60.94699305980611,
        "lon": -133.49107893502924,
        "alt_km": 36409.09760143807,
        "timestamp": "2025-12-21T20:41:06.755536+00:00",
        "meta_object_name": "TJS-21",
        "meta_object_id": "2025-269A",
        "meta_epoch": "2025-12-18T16:58:10.473888",
        "meta_mean_motion": 2.00580748,
        "meta_eccentricity": 0.6806869,
        "meta_inclination": 63.2733,
        "meta_ra_of_asc_node": 161.7218,
        "meta_arg_of_pericenter": 269.7428,
        "meta_mean_anomaly": 18.6663,
        "meta_ephemeris_type": 0,
        "meta_classification_type": "U",
        "meta_norad_cat_id": 66586,
        "meta_element_set_no": 999,
        "meta_rev_at_epoch": 55,
        "meta_bstar": -0.059507049,
        "meta_mean_motion_dot": 1.084e-05,
        "meta_mean_motion_ddot": 0,
        "tle_line1": "1 66586U 25269A   25352.70706567  .00001084  00000+0 -59507-1 0  9990",
        "tle_line2": "2 66586  63.2733 161.7218 6806869 269.7428  18.6663  2.00580748   558"
      },
      "geometry": {
        "type": "Point",
        "coordinates": [
          -133.49107893502924,
          60.94699305980611
        ]
      }
    },
    {
      "type": "Feature",
      "properties": {
        "norad_id": 66587,
        "name": "CZ-3B R/B",
        "group": "last-30-days",
        "lat": 42.534228085578384,
        "lon": -145.16479381440539,
        "alt_km": 37593.460117848655,
        "timestamp": "2025-12-21T20:41:06.755550+00:00",
        "meta_object_name": "CZ-3B R/B",
        "meta_object_id": "2025-269B",
        "meta_epoch": "2025-12-18T04:21:45.908640",
        "meta_mean_motion": 2.0405465,
        "meta_eccentricity": 0.75166459,
        "meta_inclination": 51.3412,
        "meta_ra_of_asc_node": 168.3764,
        "meta_arg_of_pericenter": 229.6756,
        "meta_mean_anomaly": 36.1575,
        "meta_ephemeris_type": 0,
        "meta_classification_type": "U",
        "meta_norad_cat_id": 66587,
        "meta_element_set_no": 999,
        "meta_rev_at_epoch": 56,
        "meta_bstar": 0.00058948144,
        "meta_mean_motion_dot": 0.0008861,
        "meta_mean_motion_ddot": -1.447425e-06,
        "tle_line1": "1 66587U 25269B   25352.18178135  .00088610 -14474-5  58948-3 0  9993",
        "tle_line2": "2 66587  51.3412 168.3764 7516645 229.6756  36.1575  2.04054650   560"
      },
      "geometry": {
        "type": "Point",
        "coordinates": [
          -145.16479381440539,
          42.534228085578384
        ]
      }
    },
    {
      "type": "Feature",
      "properties": {
        "norad_id": 66588,
        "name": "STARLINK-36076",
        "group": "last-30-days",
        "lat": -42.963297527104814,
        "lon": 48.276475929908266,
        "alt_km": 445.6337166751291,
        "timestamp": "2025-12-21T20:41:06.755562+00:00",
        "meta_object_name": "STARLINK-36076",
        "meta_object_id": "2025-270A",
        "meta_epoch": "2025-12-20T18:37:52.441824",
        "meta_mean_motion": 15.40705129,
        "meta_eccentricity": 0.00022885,
        "meta_inclination": 42.9999,
        "meta_ra_of_asc_node": 146.471,
        "meta_arg_of_pericenter": 264.7414,
        "meta_mean_anomaly": 95.3181,
        "meta_ephemeris_type": 0,
        "meta_classification_type": "U",
        "meta_norad_cat_id": 66588,
        "meta_element_set_no": 999,
        "meta_rev_at_epoch": 558,
        "meta_bstar": 0.00080388566,
        "meta_mean_motion_dot": 0.00033431,
        "meta_mean_motion_ddot": 0,
        "tle_line1": "1 66588U 25270A   25354.77630141  .00033431  00000+0  80389-3 0  9991",
        "tle_line2": "2 66588  42.9999 146.4710 0002288 264.7414  95.3181 15.40705129  5587"
      },
      "geometry": {
        "type": "Point",
        "coordinates": [
          48.276475929908266,
          -42.963297527104814
        ]
      }
    }
  ]
}